[{"COMMENT":"GENERATED VIA SPACETRACK.ORG API","ORIGINATOR":"18 SPCS","NORAD_CAT_ID":"43477","OBJECT_NAME":"GRACE-FO 2","OBJECT_TYPE":"PAYLOAD","CLASSIFICATION_TYPE":"U","INTLDES":"18047B","EPOCH":"2023-10-21 12:46:50","EPOCH_MICROSECONDS":"795904","MEAN_MOTION":"15.27119388","ECCENTRICITY":"0.0010653","INCLINATION":"88.9851","RA_OF_ASC_NODE":"332.007","ARG_OF_PERICENTER":"271.6461","MEAN_ANOMALY":"88.3568","EPHEMERIS_TYPE":"0","ELEMENT_SET_NO":"999","REV_AT_EPOCH":"30127","BSTAR":"0.00015262","MEAN_MOTION_DOT":"0.0000409","MEAN_MOTION_DDOT":"0","FILE":"4045437","TLE_LINE0":"0 GRACE-FO 2","TLE_LINE1":"1 43477U 18047B   23294.53253236  .00004090  00000-0  15262-3 0  9996","TLE_LINE2":"2 43477  88.9851 332.0070 0010653 271.6461  88.3568 15.27119388301279","OBJECT_ID":"2018-047B","OBJECT_NUMBER":"43477","SEMIMAJOR_AXIS":"6862.566","PERIOD":"94.295","APOGEE":"491.741","PERIGEE":"477.120","DECAYED":"0"},{"COMMENT":"GENERATED VIA SPACETRACK.ORG API","ORIGINATOR":"18 SPCS","NORAD_CAT_ID":"43477","OBJECT_NAME":"GRACE-FO 2","OBJECT_TYPE":"PAYLOAD","CLASSIFICATION_TYPE":"U","INTLDES":"18047B","EPOCH":"2023-10-21 22:13:00","EPOCH_MICROSECONDS":"778944","MEAN_MOTION":"15.27122822","ECCENTRICITY":"0.0010648","INCLINATION":"88.985","RA_OF_ASC_NODE":"331.9533","ARG_OF_PERICENTER":"269.7382","MEAN_ANOMALY":"90.2647","EPHEMERIS_TYPE":"0","ELEMENT_SET_NO":"999","REV_AT_EPOCH":"30133","BSTAR":"0.00015394","MEAN_MOTION_DOT":"0.00004126","MEAN_MOTION_DDOT":"0","FILE":"4046563","TLE_LINE0":"0 GRACE-FO 2","TLE_LINE1":"1 43477U 18047B   23294.92570346  .00004126  00000-0  15394-3 0  9999","TLE_LINE2":"2 43477  88.9850 331.9533 0010648 269.7382  90.2647 15.27122822301338","OBJECT_ID":"2018-047B","OBJECT_NUMBER":"43477","SEMIMAJOR_AXIS":"6862.555","PERIOD":"94.295","APOGEE":"491.728","PERIGEE":"477.113","DECAYED":"0"},{"COMMENT":"GENERATED VIA SPACETRACK.ORG API","ORIGINATOR":"18 SPCS","NORAD_CAT_ID":"43477","OBJECT_NAME":"GRACE-FO 2","OBJECT_TYPE":"PAYLOAD","CLASSIFICATION_TYPE":"U","INTLDES":"18047B","EPOCH":"2023-10-22 13:56:37","EPOCH_MICROSECONDS":"238784","MEAN_MOTION":"15.27127916","ECCENTRICITY":"0.0010652","INCLINATION":"88.9851","RA_OF_ASC_NODE":"331.8638","ARG_OF_PERICENTER":"266.5489","MEAN_ANOMALY":"93.4542","EPHEMERIS_TYPE":"0","ELEMENT_SET_NO":"999","REV_AT_EPOCH":"30143","BSTAR":"0.00013949","MEAN_MOTION_DOT":"0.00003742","MEAN_MOTION_DDOT":"0","FILE":"4047923","TLE_LINE0":"0 GRACE-FO 2","TLE_LINE1":"1 43477U 18047B   23295.58098656  .00003742  00000-0  13949-3 0  9998","TLE_LINE2":"2 43477  88.9851 331.8638 0010652 266.5489  93.4542 15.27127916301431","OBJECT_ID":"2018-047B","OBJECT_NUMBER":"43477","SEMIMAJOR_AXIS":"6862.540","PERIOD":"94.295","APOGEE":"491.715","PERIGEE":"477.095","DECAYED":"0"},{"COMMENT":"GENERATED VIA SPACETRACK.ORG API","ORIGINATOR":"18 SPCS","NORAD_CAT_ID":"43477","OBJECT_NAME":"GRACE-FO 2","OBJECT_TYPE":"PAYLOAD","CLASSIFICATION_TYPE":"U","INTLDES":"18047B","EPOCH":"2023-10-22 20:14:03","EPOCH_MICROSECONDS":"757056","MEAN_MOTION":"15.27131541","ECCENTRICITY":"0.0010659","INCLINATION":"88.9851","RA_OF_ASC_NODE":"331.8281","ARG_OF_PERICENTER":"265.2991","MEAN_ANOMALY":"94.7041","EPHEMERIS_TYPE":"0","ELEMENT_SET_NO":"999","REV_AT_EPOCH":"30147","BSTAR":"0.00016136","MEAN_MOTION_DOT":"0.00004325","MEAN_MOTION_DDOT":"0","FILE":"4047973","TLE_LINE0":"0 GRACE-FO 2","TLE_LINE1":"1 43477U 18047B   23295.84309904  .00004325  00000-0  16136-3 0  9997","TLE_LINE2":"2 43477  88.9851 331.8281 0010659 265.2991  94.7041 15.27131541301477","OBJECT_ID":"2018-047B","OBJECT_NUMBER":"43477","SEMIMAJOR_AXIS":"6862.529","PERIOD":"94.294","APOGEE":"491.709","PERIGEE":"477.080","DECAYED":"0"},{"COMMENT":"GENERATED VIA SPACETRACK.ORG API","ORIGINATOR":"18 SPCS","NORAD_CAT_ID":"43477","OBJECT_NAME":"GRACE-FO 2","OBJECT_TYPE":"PAYLOAD","CLASSIFICATION_TYPE":"U","INTLDES":"18047B","EPOCH":"2023-10-22 21:48:25","EPOCH_MICROSECONDS":"384896","MEAN_MOTION":"15.27132109","ECCENTRICITY":"0.0010659","INCLINATION":"88.9851","RA_OF_ASC_NODE":"331.8192","ARG_OF_PERICENTER":"264.9929","MEAN_ANOMALY":"95.0103","EPHEMERIS_TYPE":"0","ELEMENT_SET_NO":"999","REV_AT_EPOCH":"30148","BSTAR":"0.00016146","MEAN_MOTION_DOT":"0.00004327","MEAN_MOTION_DDOT":"0","FILE":"4048538","TLE_LINE0":"0 GRACE-FO 2","TLE_LINE1":"1 43477U 18047B   23295.90862714  .00004327  00000-0  16146-3 0  9990","TLE_LINE2":"2 43477  88.9851 331.8192 0010659 264.9929  95.0103 15.27132109301480","OBJECT_ID":"2018-047B","OBJECT_NUMBER":"43477","SEMIMAJOR_AXIS":"6862.528","PERIOD":"94.294","APOGEE":"491.707","PERIGEE":"477.078","DECAYED":"0"},{"COMMENT":"GENERATED VIA SPACETRACK.ORG API","ORIGINATOR":"18 SPCS","NORAD_CAT_ID":"43477","OBJECT_NAME":"GRACE-FO 2","OBJECT_TYPE":"PAYLOAD","CLASSIFICATION_TYPE":"U","INTLDES":"18047B","EPOCH":"2023-10-23 21:23:49","EPOCH_MICROSECONDS":"588224","MEAN_MOTION":"15.27138862","ECCENTRICITY":"0.001069","INCLINATION":"88.9849","RA_OF_ASC_NODE":"331.685","ARG_OF_PERICENTER":"260.0677","MEAN_ANOMALY":"99.9365","EPHEMERIS_TYPE":"0","ELEMENT_SET_NO":"999","REV_AT_EPOCH":"30163","BSTAR":"0.00013646","MEAN_MOTION_DOT":"0.00003663","MEAN_MOTION_DDOT":"0","FILE":"4050204","TLE_LINE0":"0 GRACE-FO 2","TLE_LINE1":"1 43477U 18047B   23296.89154616  .00003663  00000-0  13646-3 0  9998","TLE_LINE2":"2 43477  88.9849 331.6850 0010690 260.0677  99.9365 15.27138862301630","OBJECT_ID":"2018-047B","OBJECT_NUMBER":"43477","SEMIMAJOR_AXIS":"6862.507","PERIOD":"94.294","APOGEE":"491.708","PERIGEE":"477.036","DECAYED":"0"},{"COMMENT":"GENERATED VIA SPACETRACK.ORG API","ORIGINATOR":"18 SPCS","NORAD_CAT_ID":"43477","OBJECT_NAME":"GRACE-FO 2","OBJECT_TYPE":"PAYLOAD","CLASSIFICATION_TYPE":"U","INTLDES":"18047B","EPOCH":"2023-10-24 03:41:15","EPOCH_MICROSECONDS":"976896","MEAN_MOTION":"15.27140757","ECCENTRICITY":"0.0010701","INCLINATION":"88.9849","RA_OF_ASC_NODE":"331.6492","ARG_OF_PERICENTER":"258.7823","MEAN_ANOMALY":"101.2223","EPHEMERIS_TYPE":"0","ELEMENT_SET_NO":"999","REV_AT_EPOCH":"30167","BSTAR":"0.00013144","MEAN_MOTION_DOT":"0.00003529","MEAN_MOTION_DDOT":"0","FILE":"4050290","TLE_LINE0":"0 GRACE-FO 2","TLE_LINE1":"1 43477U 18047B   23297.15365714  .00003529  00000-0  13144-3 0  9995","TLE_LINE2":"2 43477  88.9849 331.6492 0010701 258.7823 101.2223 15.27140757301672","OBJECT_ID":"2018-047B","OBJECT_NUMBER":"43477","SEMIMAJOR_AXIS":"6862.502","PERIOD":"94.294","APOGEE":"491.710","PERIGEE":"477.023","DECAYED":"0"},{"COMMENT":"GENERATED VIA SPACETRACK.ORG API","ORIGINATOR":"18 SPCS","NORAD_CAT_ID":"43477","OBJECT_NAME":"GRACE-FO 2","OBJECT_TYPE":"PAYLOAD","CLASSIFICATION_TYPE":"U","INTLDES":"18047B","EPOCH":"2023-10-24 13:07:25","EPOCH_MICROSECONDS":"580640","MEAN_MOTION":"15.27142012","ECCENTRICITY":"0.0010734","INCLINATION":"88.9847","RA_OF_ASC_NODE":"331.5956","ARG_OF_PERICENTER":"256.8991","MEAN_ANOMALY":"103.106","EPHEMERIS_TYPE":"0","ELEMENT_SET_NO":"999","REV_AT_EPOCH":"30173","BSTAR":"0.00012122","MEAN_MOTION_DOT":"0.00003257","MEAN_MOTION_DDOT":"0","FILE":"4051588","TLE_LINE0":"0 GRACE-FO 2","TLE_LINE1":"1 43477U 18047B   23297.54682385  .00003257  00000-0  12122-3 0  9997","TLE_LINE2":"2 43477  88.9847 331.5956 0010734 256.8991 103.1060 15.27142012301738","OBJECT_ID":"2018-047B","OBJECT_NUMBER":"43477","SEMIMAJOR_AXIS":"6862.498","PERIOD":"94.294","APOGEE":"491.729","PERIGEE":"476.997","DECAYED":"0"},{"COMMENT":"GENERATED VIA SPACETRACK.ORG API","ORIGINATOR":"18 SPCS","NORAD_CAT_ID":"43477","OBJECT_NAME":"GRACE-FO 2","OBJECT_TYPE":"PAYLOAD","CLASSIFICATION_TYPE":"U","INTLDES":"18047B","EPOCH":"2023-10-24 14:41:47","EPOCH_MICROSECONDS":"170464","MEAN_MOTION":"15.27142411","ECCENTRICITY":"0.0010737","INCLINATION":"88.9847","RA_OF_ASC_NODE":"331.5866","ARG_OF_PERICENTER":"256.5998","MEAN_ANOMALY":"103.4054","EPHEMERIS_TYPE":"0","ELEMENT_SET_NO":"999","REV_AT_EPOCH":"30174","BSTAR":"0.0001205","MEAN_MOTION_DOT":"0.00003238","MEAN_MOTION_DDOT":"0","FILE":"4051589","TLE_LINE0":"0 GRACE-FO 2","TLE_LINE1":"1 43477U 18047B   23297.61235151  .00003238  00000-0  12050-3 0  9999","TLE_LINE2":"2 43477  88.9847 331.5866 0010737 256.5998 103.4054 15.27142411301745","OBJECT_ID":"2018-047B","OBJECT_NUMBER":"43477","SEMIMAJOR_AXIS":"6862.497","PERIOD":"94.294","APOGEE":"491.730","PERIGEE":"476.993","DECAYED":"0"},{"COMMENT":"GENERATED VIA SPACETRACK.ORG API","ORIGINATOR":"18 SPCS","NORAD_CAT_ID":"43477","OBJECT_NAME":"GRACE-FO 2","OBJECT_TYPE":"PAYLOAD","CLASSIFICATION_TYPE":"U","INTLDES":"18047B","EPOCH":"2023-10-25 14:17:10","EPOCH_MICROSECONDS":"830336","MEAN_MOTION":"15.27148469","ECCENTRICITY":"0.0010782","INCLINATION":"88.9845","RA_OF_ASC_NODE":"331.4524","ARG_OF_PERICENTER":"251.7551","MEAN_ANOMALY":"108.2525","EPHEMERIS_TYPE":"0","ELEMENT_SET_NO":"999","REV_AT_EPOCH":"30189","BSTAR":"0.00011389","MEAN_MOTION_DOT":"0.00003063","MEAN_MOTION_DDOT":"0","FILE":"4051739","TLE_LINE0":"0 GRACE-FO 2","TLE_LINE1":"1 43477U 18047B   23298.59526424  .00003063  00000-0  11389-3 0  9993","TLE_LINE2":"2 43477  88.9845 331.4524 0010782 251.7551 108.2525 15.27148469301896","OBJECT_ID":"2018-047B","OBJECT_NUMBER":"43477","SEMIMAJOR_AXIS":"6862.479","PERIOD":"94.293","APOGEE":"491.743","PERIGEE":"476.944","DECAYED":"0"}]